{"n":36828,"c":2,"l1":"1 36828U 2010-036 26132.68902603 -0.00000041  00000-0  00000-0 0  9994","l2":"2 36828  54.2951 163.2807 0058856 224.5644 197.8413  1.00282752 57744","nm":"BEIDOU-2 IGSO-1"},{"n":37210,"c":2,"l1":"1 37210U 2010-057 26137.77289661 -0.00000107  00000-0  00000-0 0  9993","l2":"2 37210   3.5714  69.1123 0005826 208.3580  36.2281  1.00271797 56988","nm":"BEIDOU-2 G4"},{"n":37256,"c":2,"l1":"1 37256U 2010-068 26135.72421087 -0.00000229  00000-0  00000-0 0  9993","l2":"2 37256  47.6108 272.2352 0054346 211.9136 116.2636  1.00294155 56462","nm":"BEIDOU-2 IGSO-2"},{"n":37384,"c":2,"l1":"1 37384U 2011-013 26134.75077336 -0.00000206  00000-0  00000-0 0  9997","l2":"2 37384  62.3634  40.4703 0033942 185.9417  24.6219  1.00276202 55324","nm":"BEIDOU-2 IGSO-3"},{"n":37763,"c":2,"l1":"1 37763U 2011-038 26137.05441595  0.00000065  00000-0  00000-0 0  9995","l2":"2 37763  54.5924 165.9512 0158340 231.2358 308.9707  1.00290692 54339","nm":"BEIDOU-2 IGSO-4"},{"n":37948,"c":2,"l1":"1 37948U 2011-073 26137.83122352 -0.00000175  00000-0  00000-0 0  9995","l2":"2 37948  47.7357 271.9197 0112013 220.5712 134.6052  1.00255242 52828","nm":"BEIDOU-2 IGSO-5"},{"n":38091,"c":2,"l1":"1 38091U 2012-008 26137.82411682  0.00000062  00000-0  00000-0 0  9994","l2":"2 38091   3.4979  69.8679 0010969 270.0931 250.9118  1.00272325 52068","nm":"BEIDOU-2 G5"},{"n":38250,"c":2,"l1":"1 38250U 2012-018 26137.58206860 -0.00000055  00000-0  00000-0 0  9998","l2":"2 38250  55.7849 305.9066 0019706 276.2878  83.4643  1.86229893 95370","nm":"BEIDOU-2 M3"},{"n":38251,"c":2,"l1":"1 38251U 2012-018 26137.51432167 -0.00000055  00000-0  00000-0 0  9993","l2":"2 38251  55.6853 305.1252 0010929 280.3706  79.4822  1.86229518 95376","nm":"BEIDOU-2 M4"},{"n":38775,"c":2,"l1":"1 38775U 2012-050 26136.15025056 -0.00000044  00000-0  00000-0 0  9992","l2":"2 38775  56.5176  63.9535 0014303 352.0732   7.8852  1.86230812 92716","nm":"BEIDOU-2 M6"},{"n":38953,"c":2,"l1":"1 38953U 2012-059 26137.82914351 -0.00000171  00000-0  00000-0 0  9990","l2":"2 38953   4.3445  73.8357 0010231 319.9990 224.2467  1.00270656 49603","nm":"BEIDOU-2 G6"},{"n":40549,"c":2,"l1":"1 40549U 2015-019 26137.79519007 -0.00000185  00000-0  00000-0 0  9993","l2":"2 40549  49.2541 295.8259 0038008 190.0363 129.6934  1.00256379 40764","nm":"BEIDOU-3S IGSO-1S"},{"n":40748,"c":2,"l1":"1 40748U 2015-037 26136.10634049 -0.00000053  00000-0  00000-0 0  9996","l2":"2 40748  54.8996 303.1506 0007607 266.3231  93.5670  1.86232017 73524","nm":"BEIDOU-3S M2S"},{"n":40749,"c":2,"l1":"1 40749U 2015-037 26137.39143059 -0.00000055  00000-0  00000-0 0  9997","l2":"2 40749  54.8957 303.0937 0004091  56.6670 303.3466  1.86254752 73558","nm":"BEIDOU-3S M1S"},{"n":40938,"c":2,"l1":"1 40938U 2015-053 26137.81066757 -0.00000159  00000-0  00000-0 0  9996","l2":"2 40938  49.2706 259.1436 0064793 191.0617 173.5513  1.00266068 39059","nm":"BEIDOU-3S IGSO-2S"},{"n":41434,"c":2,"l1":"1 41434U 2016-021 26137.70302955 -0.00000171  00000-0  00000-0 0  9999","l2":"2 41434  60.1850  38.3434 0057273 232.4586 312.1145  1.00264285 37170","nm":"BEIDOU-2 IGSO-6"},{"n":41586,"c":2,"l1":"1 41586U 2016-037 26137.76306277 -0.00000347  00000-0  00000-0 0  9996","l2":"2 41586   1.6446  69.0337 0007304 358.9385 192.7127  1.00266892  6582","nm":"BEIDOU-2 G7"},{"n":43001,"c":2,"l1":"1 43001U 2017-069 26136.98954546 -0.00000044  00000-0  00000-0 0  9991","l2":"2 43001  56.6660  64.1126 0011553 321.2454  38.6547  1.86231141 58020","nm":"BEIDOU-3 M1"},{"n":43002,"c":2,"l1":"1 43002U 2017-069 26137.46517464 -0.00000043  00000-0  00000-0 0  9999","l2":"2 43002  56.6659  64.1325 0009885 344.6409  15.3135  1.86230339 58027","nm":"BEIDOU-3 M2"},{"n":43107,"c":2,"l1":"1 43107U 2018-003 26136.66985338 -0.00000056  00000-0  00000-0 0  9998","l2":"2 43107  54.3572 303.4141 0005200  86.1202 273.9154  1.86228144 56766","nm":"BEIDOU-3 M7"},{"n":43108,"c":2,"l1":"1 43108U 2018-003 26132.85647029 -0.00000043  00000-0  00000-0 0  9994","l2":"2 43108  54.3540 303.5291 0002179 277.0252  82.9401  1.86231209 56700","nm":"BEIDOU-3 M8"},{"n":43207,"c":2,"l1":"1 43207U 2018-018 26137.05782972 -0.00000044  00000-0  00000-0 0  9995","l2":"2 43207  56.6253  64.1753 0007879   9.5827 350.4152  1.86231080 56160","nm":"BEIDOU-3 M4"},{"n":43208,"c":2,"l1":"1 43208U 2018-018 26137.12429153 -0.00000044  00000-0  00000-0 0  9993","l2":"2 43208  56.6244  64.1770 0009478 335.5637  24.3746  1.86230895 56167","nm":"BEIDOU-3 M3"},{"n":43245,"c":2,"l1":"1 43245U 2018-029 26137.34195332 -0.00000055  00000-0  00000-0 0  9991","l2":"2 43245  54.2225 301.0269 0000897 115.5907 244.3912  1.86228091 55320","nm":"BEIDOU-3 M9"},{"n":43246,"c":2,"l1":"1 43246U 2018-029 26136.73951294 -0.00000054  00000-0  00000-0 0  9990","l2":"2 43246  54.2213 301.0752 0004491  37.4098 322.5950  1.86229262 55290","nm":"BEIDOU-3 M10"},{"n":43539,"c":2,"l1":"1 43539U 2018-057 26137.47863972 -0.00000002  00000-0  00000-0 0  9996","l2":"2 43539  55.1880 163.3268 0104245 237.9000 118.1952  1.00260773 28811","nm":"BEIDOU-2 IGSO-7"},{"n":43581,"c":2,"l1":"1 43581U 2018-062 26135.35288751  0.00000098  00000-0  00000-0 0  9994","l2":"2 43581  54.0836 183.4210 0005013 287.6962  72.3442  1.86228530 53024","nm":"BEIDOU-3 M5"},{"n":43582,"c":2,"l1":"1 43582U 2018-062 26137.36403049  0.00000082  00000-0  00000-0 0  9990","l2":"2 43582  54.0833 183.3416 0004739  15.5717 344.5351  1.86227445 53060","nm":"BEIDOU-3 M6"},{"n":43602,"c":2,"l1":"1 43602U 2018-067 26137.30242252  0.00000084  00000-0  00000-0 0  9991","l2":"2 43602  54.1786 182.0879 0007743  31.4775 328.6606  1.86227757 52543","nm":"BEIDOU-3 M12"},{"n":43603,"c":2,"l1":"1 43603U 2018-067 26134.75259479  0.00000100  00000-0  00000-0 0  9996","l2":"2 43603  54.1758 182.1382 0004429  17.6934 342.4159  1.86227418 52523","nm":"BEIDOU-3 M11"},{"n":43622,"c":2,"l1":"1 43622U 2018-072 26133.63367347 -0.00000035  00000-0  00000-0 0  9991","l2":"2 43622  56.5956  63.8000 0008352 321.7173  38.2058  1.86231484 52015","nm":"BEIDOU-3 M13"}